OBJECT_NAME,OBJECT_ID,EPOCH,MEAN_MOTION,ECCENTRICITY,INCLINATION,RA_OF_ASC_NODE,ARG_OF_PERICENTER,MEAN_ANOMALY,EPHEMERIS_TYPE,CLASSIFICATION_TYPE,NORAD_CAT_ID,ELEMENT_SET_NO,REV_AT_EPOCH,BSTAR,MEAN_MOTION_DOT,MEAN_MOTION_DDOT
BEIDOU-3S IGSO-1S (C31),2015-019A,2026-06-03T20:54:21.655872,1.00254002,.0038494,49.2213,295.6213,191.1761,171.6675,0,U,40549,999,4094,0,-.164E-5,0
GPS BIIF-10 (PRN 08),2015-033A,2026-06-02T18:16:57.195840,2.00557138,.01150446,53.9939,267.6813,30.1673,330.5059,0,U,40730,999,7970,0,-.27E-6,0
BEIDOU-3S M2S (C58),2015-037A,2026-06-02T06:55:46.974432,1.86232274,.00078489,54.8844,302.5583,262.7057,97.1823,0,U,40748,999,7384,0,-.7E-6,0
BEIDOU-3S M1S (C57),2015-037B,2026-06-03T13:43:17.560992,1.86254987,.00037034,54.8802,302.5027,59.9652,300.0537,0,U,40749,999,7387,0,-.62E-6,0
GSAT0205 (GALILEO 9),2015-045A,2026-05-24T07:17:44.873376,1.67409242,.00064058,54.9357,222.4171,263.0112,96.9692,0,U,40889,999,6656,0,-.14E-6,0
GSAT0206 (GALILEO 10),2015-045B,2026-06-02T04:56:50.800992,1.70474042,.0001691,54.9487,222.0183,340.6304,19.4569,0,U,40890,999,6678,0,.37E-6,0
BEIDOU-3S IGSO-2S (C56),2015-053A,2026-06-03T18:27:21.816000,1.00263058,.0064941,49.2433,258.9423,192.1078,173.8319,0,U,40938,999,3922,0,-.13E-5,0
GPS BIIF-11 (PRN 10),2015-062A,2026-05-31T07:48:48.513600,2.00567194,.01115281,56.9483,31.4607,231.2232,127.8246,0,U,41019,999,7749,0,-.85E-6,0
GSAT-15 (GAGAN/PRN 139),2015-065A,2026-06-04T03:52:21.578304,1.00271256,.0004238,0.0453,116.8999,317.4659,329.8490,0,U,41028,999,3866,0,-.246E-5,0
GSAT0209 (GALILEO 12),2015-079A,2026-06-02T08:58:40.612224,1.70473980,.00054869,55.8190,101.6681,338.3855,21.5417,0,U,41174,999,6452,0,.3E-7,0
GSAT0208 (GALILEO 11),2015-079B,2026-06-03T04:20:36.356640,1.70473818,.00048566,55.8180,101.6428,341.4145,18.5225,0,U,41175,999,6495,0,.8E-7,0
IRNSS-1E,2016-003A,2026-06-03T15:50:52.233792,1.00271426,.00178667,33.2059,59.9463,179.9869,1.6722,0,U,41241,999,3794,0,-.301E-5,0
GPS BIIF-12 (PRN 32),2016-007A,2026-06-01T21:52:06.290688,2.00552626,.00963404,55.5151,90.0651,247.3878,111.5659,0,U,41328,999,7553,0,-.22E-6,0
COSMOS 2514 (751),2016-008A,2026-06-03T16:14:20.521824,2.13102715,.0010771,65.0303,313.4702,197.2155,162.7371,0,U,41330,999,8033,0,-.41E-6,0
BEIDOU-2 IGSO-6 (C13),2016-021A,2026-06-03T15:45:07.784640,1.00262467,.00573208,60.2067,38.1749,231.5636,312.2967,0,U,41434,999,3734,0,-.145E-5,0
IRNSS-1G,2016-027A,2026-06-03T22:23:38.519808,1.00272935,.0007422,5.1656,97.7791,351.4968,268.6051,0,U,41469,999,3704,0,-.323E-5,0
GSAT0211 (GALILEO 14),2016-030A,2026-06-02T03:09:53.430624,1.70474145,.0002706,55.0991,222.1092,330.2266,29.8517,0,U,41549,999,6241,0,.37E-6,0
GSAT0210 (GALILEO 13),2016-030B,2026-06-02T09:20:21.945696,1.70474245,.00033459,55.0982,222.1002,232.8664,127.1968,0,U,41550,999,6241,0,.38E-6,0
BEIDOU-2 G7 (C03),2016-037A,2026-06-04T00:23:52.600992,1.00271896,.0007348,1.6878,69.2112,0.3118,299.4820,0,U,41586,999,675,0,-.342E-5,0
EUTELSAT 117 WEST B (WAAS/PRN 131),2016-038B,2026-06-03T23:19:03.029376,1.00268789,.000025,0.0083,140.1659,186.4691,158.5591,0,U,41589,999,3653,0,.1E-7,0
GSAT0207 (GALILEO 15),2016-069A,2026-06-03T20:10:19.606080,1.70473800,.0005523,55.4909,101.4554,326.1411,33.7823,0,U,41859,999,5917,0,.1E-6,0
GSAT0212 (GALILEO 16),2016-069B,2026-06-03T02:34:35.573088,1.70474020,.00046934,55.4882,101.4709,352.8898,7.0579,0,U,41860,999,5941,0,.6E-7,0
GSAT0213 (GALILEO 17),2016-069C,2026-05-30T22:55:20.608032,1.70474449,.00053723,55.4878,101.5659,310.5840,49.3122,0,U,41861,999,5922,0,-.6E-7,0
GSAT0214 (GALILEO 18),2016-069D,2026-06-02T10:44:35.277792,1.70474054,.00044234,55.4887,101.4896,316.8165,43.0998,0,U,41862,999,5939,0,.3E-7,0
SES-15 (WAAS/PRN 133),2017-026A,2026-06-04T05:29:26.102112,1.00270135,.0000717,0.0197,332.8854,95.7166,137.2774,0,U,42709,999,730,0,.72E-6,0
QZS-2 (QZSS/PRN 194),2017-028A,2026-06-03T14:37:16.987296,1.00287507,.075959,39.4485,243.3546,269.1264,100.0088,0,U,42738,999,749,0,-.158E-5,0
QZS-3 (QZSS/PRN 199),2017-048A,2026-06-04T00:28:37.146432,1.00272502,.0002885,0.0611,196.3104,246.0776,304.2764,0,U,42917,999,3212,0,-.336E-5,0
COSMOS 2522 (752),2017-055A,2026-06-02T02:33:39.225600,2.13102000,.00105132,64.0774,192.3978,239.6203,120.3566,0,U,42939,999,6765,0,.7E-6,0
QZS-4 (QZSS/PRN 195),2017-062A,2026-06-03T20:12:38.749824,1.00255682,.074481,40.1163,343.6531,271.5248,78.3172,0,U,42965,999,3166,0,-.324E-5,0
BEIDOU-3 M1 (C19),2017-069A,2026-06-03T04:07:55.455168,1.86231656,.00109882,56.6802,63.5462,322.8925,37.0519,0,U,43001,999,5834,0,-.47E-6,0
BEIDOU-3 M2 (C20),2017-069B,2026-05-31T23:06:47.325600,1.86230808,.00096144,56.6782,63.6543,347.1682,12.8156,0,U,43002,999,5829,0,-.66E-6,0
